[{"OBJECT_NAME":"INTELSAT 10 (IS-10)","OBJECT_ID":"2001-019A","EPOCH":"2026-03-03T19:54:10.059840","MEAN_MOTION":0.9904203,"ECCENTRICITY":0.0005997,"INCLINATION":8.8245,"RA_OF_ASC_NODE":60.3264,"ARG_OF_PERICENTER":265.5847,"MEAN_ANOMALY":279.9653,"EPHEMERIS_TYPE":0,"CLASSIFICATION_TYPE":"U","NORAD_CAT_ID":26766,"ELEMENT_SET_NO":999,"REV_AT_EPOCH":4453,"BSTAR":0,"MEAN_MOTION_DOT":-2.97e-6,"MEAN_MOTION_DDOT":0},{"OBJECT_NAME":"INTELSAT 902 (IS-902)","OBJECT_ID":"2001-039A","EPOCH":"2026-03-03T00:55:38.255808","MEAN_MOTION":1.00270738,"ECCENTRICITY":0.00045981,"INCLINATION":5.8488,"RA_OF_ASC_NODE":73.0785,"ARG_OF_PERICENTER":274.7996,"MEAN_ANOMALY":136.7372,"EPHEMERIS_TYPE":0,"CLASSIFICATION_TYPE":"U","NORAD_CAT_ID":26900,"ELEMENT_SET_NO":999,"REV_AT_EPOCH":8963,"BSTAR":0,"MEAN_MOTION_DOT":-2.96e-6,"MEAN_MOTION_DDOT":0},{"OBJECT_NAME":"INTELSAT 904 (IS-904)","OBJECT_ID":"2002-007A","EPOCH":"2026-03-03T20:46:20.059680","MEAN_MOTION":1.00273362,"ECCENTRICITY":0.0006109,"INCLINATION":6.6574,"RA_OF_ASC_NODE":70.4474,"ARG_OF_PERICENTER":305.4536,"MEAN_ANOMALY":65.8068,"EPHEMERIS_TYPE":0,"CLASSIFICATION_TYPE":"U","NORAD_CAT_ID":27380,"ELEMENT_SET_NO":999,"REV_AT_EPOCH":5071,"BSTAR":0,"MEAN_MOTION_DOT":-2.36e-6,"MEAN_MOTION_DDOT":0},{"OBJECT_NAME":"DIRECTV 5 (TEMPO 1)","OBJECT_ID":"2002-023A","EPOCH":"2026-03-04T03:14:41.935776","MEAN_MOTION":1.00272238,"ECCENTRICITY":0.0003607,"INCLINATION":4.6098,"RA_OF_ASC_NODE":76.6238,"ARG_OF_PERICENTER":274.1465,"MEAN_ANOMALY":109.6848,"EPHEMERIS_TYPE":0,"CLASSIFICATION_TYPE":"U","NORAD_CAT_ID":27426,"ELEMENT_SET_NO":999,"REV_AT_EPOCH":8707,"BSTAR":0,"MEAN_MOTION_DOT":-6.7e-7,"MEAN_MOTION_DDOT":0},{"OBJECT_NAME":"INTELSAT 905 (IS-905)","OBJECT_ID":"2002-027A","EPOCH":"2026-03-04T03:06:57.676608","MEAN_MOTION":1.00273422,"ECCENTRICITY":0.0003163,"INCLINATION":6.49,"RA_OF_ASC_NODE":71.064,"ARG_OF_PERICENTER":276.675,"MEAN_ANOMALY":83.685,"EPHEMERIS_TYPE":0,"CLASSIFICATION_TYPE":"U","NORAD_CAT_ID":27438,"ELEMENT_SET_NO":999,"REV_AT_EPOCH":5030,"BSTAR":0,"MEAN_MOTION_DOT":8.4e-7,"MEAN_MOTION_DDOT":0},{"OBJECT_NAME":"GALAXY 3C (G-3C)","OBJECT_ID":"2002-030A","EPOCH":"2026-03-04T03:39:15.161184","MEAN_MOTION":1.00271638,"ECCENTRICITY":0.000101,"INCLINATION":3.4639,"RA_OF_ASC_NODE":79.4641,"ARG_OF_PERICENTER":27.1185,"MEAN_ANOMALY":15.2928,"EPHEMERIS_TYPE":0,"CLASSIFICATION_TYPE":"U","NORAD_CAT_ID":27445,"ELEMENT_SET_NO":999,"REV_AT_EPOCH":4544,"BSTAR":0,"MEAN_MOTION_DOT":-1.63e-6,"MEAN_MOTION_DDOT":0},{"OBJECT_NAME":"INTELSAT 906 (IS-906)","OBJECT_ID":"2002-041A","EPOCH":"2026-03-03T13:09:25.027776","MEAN_MOTION":1.00272758,"ECCENTRICITY":0.0003244,"INCLINATION":5.534,"RA_OF_ASC_NODE":74.2228,"ARG_OF_PERICENTER":256.5254,"MEAN_ANOMALY":92.0662,"EPHEMERIS_TYPE":0,"CLASSIFICATION_TYPE":"U","NORAD_CAT_ID":27513,"ELEMENT_SET_NO":999,"REV_AT_EPOCH":8596,"BSTAR":0,"MEAN_MOTION_DOT":1.0e-8,"MEAN_MOTION_DDOT":0},{"OBJECT_NAME":"GALAXY 13 (HORIZONS-1)","OBJECT_ID":"2003-044A","EPOCH":"2026-03-04T04:36:38.570112","MEAN_MOTION":1.00272475,"ECCENTRICITY":0.000218,"INCLINATION":1.1463,"RA_OF_ASC_NODE":85.303,"ARG_OF_PERICENTER":260.5146,"MEAN_ANOMALY":95.2699,"EPHEMERIS_TYPE":0,"CLASSIFICATION_TYPE":"U","NORAD_CAT_ID":27954,"ELEMENT_SET_NO":999,"REV_AT_EPOCH":4551,"BSTAR":0,"MEAN_MOTION_DOT":1.21e-6,"MEAN_MOTION_DDOT":0},{"OBJECT_NAME":"INTELSAT 10-02","OBJECT_ID":"2004-022A","EPOCH":"2026-03-03T20:55:04.221696","MEAN_MOTION":1.00272329,"ECCENTRICITY":0.0001075,"INCLINATION":0.0154,"RA_OF_ASC_NODE":123.3623,"ARG_OF_PERICENTER":255.3819,"MEAN_ANOMALY":95.6326,"EPHEMERIS_TYPE":0,"CLASSIFICATION_TYPE":"U","NORAD_CAT_ID":28358,"ELEMENT_SET_NO":999,"REV_AT_EPOCH":7950,"BSTAR":0,"MEAN_MOTION_DOT":-2.5e-7,"MEAN_MOTION_DDOT":0},{"OBJECT_NAME":"DIRECTV 8","OBJECT_ID":"2005-019A","EPOCH":"2026-03-04T03:12:04.686048","MEAN_MOTION":1.00272536,"ECCENTRICITY":0.0003293,"INCLINATION":0.0145,"RA_OF_ASC_NODE":124.9367,"ARG_OF_PERICENTER":230.8941,"MEAN_ANOMALY":95.0082,"EPHEMERIS_TYPE":0,"CLASSIFICATION_TYPE":"U","NORAD_CAT_ID":28659,"ELEMENT_SET_NO":999,"REV_AT_EPOCH":7601,"BSTAR":0,"MEAN_MOTION_DOT":-1.1e-7,"MEAN_MOTION_DDOT":0},{"OBJECT_NAME":"GALAXY 28 (G-28)","OBJECT_ID":"2005-022A","EPOCH":"2026-03-04T03:38:17.172960","MEAN_MOTION":1.00272049,"ECCENTRICITY":0.0002288,"INCLINATION":3.0274,"RA_OF_ASC_NODE":80.2535,"ARG_OF_PERICENTER":263.694,"MEAN_ANOMALY":205.4381,"EPHEMERIS_TYPE":0,"CLASSIFICATION_TYPE":"U","NORAD_CAT_ID":28702,"ELEMENT_SET_NO":999,"REV_AT_EPOCH":5092,"BSTAR":0,"MEAN_MOTION_DOT":-2.11e-6,"MEAN_MOTION_DDOT":0},{"OBJECT_NAME":"GALAXY 16 (G-16)","OBJECT_ID":"2006-023A","EPOCH":"2026-03-04T04:27:38.801664","MEAN_MOTION":1.00263093,"ECCENTRICITY":0.000259,"INCLINATION":0.0452,"RA_OF_ASC_NODE":235.8009,"ARG_OF_PERICENTER":119.7827,"MEAN_ANOMALY":134.2315,"EPHEMERIS_TYPE":0,"CLASSIFICATION_TYPE":"U","NORAD_CAT_ID":29236,"ELEMENT_SET_NO":999,"REV_AT_EPOCH":7192,"BSTAR":0,"MEAN_MOTION_DOT":-1.38e-6,"MEAN_MOTION_DDOT":0},{"OBJECT_NAME":"DIRECTV 9S","OBJECT_ID":"2006-043A","EPOCH":"2026-03-04T03:17:11.696352","MEAN_MOTION":1.00272298,"ECCENTRICITY":0.0003157,"INCLINATION":2.1498,"RA_OF_ASC_NODE":82.2061,"ARG_OF_PERICENTER":267.1712,"MEAN_ANOMALY":120.5957,"EPHEMERIS_TYPE":0,"CLASSIFICATION_TYPE":"U","NORAD_CAT_ID":29494,"ELEMENT_SET_NO":999,"REV_AT_EPOCH":5033,"BSTAR":0,"MEAN_MOTION_DOT":-1.25e-6,"MEAN_MOTION_DDOT":0},{"OBJECT_NAME":"GALAXY 17 (G-17)","OBJECT_ID":"2007-016B","EPOCH":"2026-03-04T04:19:38.619840","MEAN_MOTION":1.00272085,"ECCENTRICITY":0.0003338,"INCLINATION":2.7061,"RA_OF_ASC_NODE":81.2435,"ARG_OF_PERICENTER":263.0978,"MEAN_ANOMALY":157.4979,"EPHEMERIS_TYPE":0,"CLASSIFICATION_TYPE":"U","NORAD_CAT_ID":31307,"ELEMENT_SET_NO":999,"REV_AT_EPOCH":6875,"BSTAR":0,"MEAN_MOTION_DOT":-2.17e-6,"MEAN_MOTION_DDOT":0},{"OBJECT_NAME":"DIRECTV 10","OBJECT_ID":"2007-032A","EPOCH":"2026-03-04T02:18:02.367936","MEAN_MOTION":0.98336589,"ECCENTRICITY":0.0006596,"INCLINATION":0.1311,"RA_OF_ASC_NODE":100.9813,"ARG_OF_PERICENTER":272.865,"MEAN_ANOMALY":234.3168,"EPHEMERIS_TYPE":0,"CLASSIFICATION_TYPE":"U","NORAD_CAT_ID":31862,"ELEMENT_SET_NO":999,"REV_AT_EPOCH":4453,"BSTAR":0,"MEAN_MOTION_DOT":-1.1e-7,"MEAN_MOTION_DDOT":0},{"OBJECT_NAME":"INTELSAT 11 (IS-11)","OBJECT_ID":"2007-044B","EPOCH":"2026-03-04T03:08:20.045184","MEAN_MOTION":0.99048736,"ECCENTRICITY":0.0005158,"INCLINATION":3.2919,"RA_OF_ASC_NODE":79.9641,"ARG_OF_PERICENTER":205.3432,"MEAN_ANOMALY":151.3636,"EPHEMERIS_TYPE":0,"CLASSIFICATION_TYPE":"U","NORAD_CAT_ID":32253,"ELEMENT_SET_NO":999,"REV_AT_EPOCH":6740,"BSTAR":0,"MEAN_MOTION_DOT":5.9e-7,"MEAN_MOTION_DDOT":0},{"OBJECT_NAME":"HORIZONS-2","OBJECT_ID":"2007-063B","EPOCH":"2026-03-04T03:44:38.901120","MEAN_MOTION":1.00271738,"ECCENTRICITY":0.000283,"INCLINATION":2.3314,"RA_OF_ASC_NODE":81.957,"ARG_OF_PERICENTER":255.6966,"MEAN_ANOMALY":166.6177,"EPHEMERIS_TYPE":0,"CLASSIFICATION_TYPE":"U","NORAD_CAT_ID":32388,"ELEMENT_SET_NO":999,"REV_AT_EPOCH":6676,"BSTAR":0,"MEAN_MOTION_DOT":-2.65e-6,"MEAN_MOTION_DDOT":0}]
